COMMENT,ORIGINATOR,NORAD_CAT_ID,OBJECT_NAME,OBJECT_TYPE,CLASSIFICATION_TYPE,INTLDES,EPOCH,EPOCH_MICROSECONDS,MEAN_MOTION,ECCENTRICITY,INCLINATION,RA_OF_ASC_NODE,ARG_OF_PERICENTER,MEAN_ANOMALY,EPHEMERIS_TYPE,ELEMENT_SET_NO,REV_AT_EPOCH,BSTAR,MEAN_MOTION_DOT,MEAN_MOTION_DDOT,FILE,TLE_LINE0,TLE_LINE1,TLE_LINE2,OBJECT_ID,OBJECT_NUMBER,SEMIMAJOR_AXIS,PERIOD,APOGEE,PERIGEE,DECAYED
GENERATED VIA SPACETRACK.ORG API,18 SPCS,8832,TITAN 3C TRANSTAGE DEB,DEBRIS,U,76023J,2024-03-29 09:34:28,8192,0.9825882,0.0138072,20.1588,52.9495,74.0388,110.272,0,999,10963,0,-0.00000045,0,4249962,0 TITAN 3C TRANSTAGE DEB,1  8832U 76023J   24089.39893528 -.00000045  00000-0  00000+0 0  9998,2  8832  20.1588  52.9495 0138072  74.0388 110.2720  0.98258820109636,1976-023J,8832,42738.651,1465.517,36950.617,35770.415,0
GENERATED VIA SPACETRACK.ORG API,18 SPCS,8832,TITAN 3C TRANSTAGE DEB,DEBRIS,U,76023J,2024-03-29 09:34:28,8192,0.9825882,0.0138072,20.1588,52.9495,74.0388,110.272,0,999,10964,0,-0.00000045,0,4250244,0 TITAN 3C TRANSTAGE DEB,1 08832U 76023J   24089.39893528 -.00000045  00000-0  00000-0 0  9999,2 08832  20.1588  52.9495 0138072  74.0388 110.2720  0.98258820109647,1976-023J,8832,42738.651,1465.517,36950.617,35770.415,0
GENERATED VIA SPACETRACK.ORG API,18 SPCS,44457,COSMOS 2539,PAYLOAD,U,19048A,2024-03-29 08:21:17,60832,1.00272563,0.0000079,0.0157,135.5601,261.5526,287.4289,0,999,1710,0,0.00000091,0,4250244,0 COSMOS 2539,1 44457U 19048A   24089.34811413  .00000091  00000-0  00000-0 0  9994,2 44457   0.0157 135.5601 0000079 261.5526 287.4289  1.00272563 17108,2019-048A,44457,42164.514,1436.086,35786.712,35786.046,0
GENERATED VIA SPACETRACK.ORG API,18 SPCS,42749,ECHOSTAR 21,PAYLOAD,U,17032A,2024-03-29 08:20:46,985856,1.00270959,0.0002418,2.678,318.1746,48.935,315.5698,0,999,2499,0,0.00000073,0,4250244,0 ECHOSTAR 21,1 42749U 17032A   24089.34776604  .00000073  00000-0  00000-0 0  9999,2 42749   2.6780 318.1746 0002418  48.9350 315.5698  1.00270959 24999,2017-032A,42749,42164.964,1436.109,35797.024,35776.633,0
GENERATED VIA SPACETRACK.ORG API,18 SPCS,42915,TDRS 13,PAYLOAD,U,17047A,2024-03-29 08:14:38,567616,1.00272406,0.0015304,3.7085,342.959,105.6716,210.7457,0,999,2425,0,-0.00000091,0,4250163,0 TDRS 13,1 42915U 17047A   24089.34350194 -.00000091  00000-0  00000+0 0  9992,2 42915   3.7085 342.9590 0015304 105.6716 210.7457  1.00272406 24258,2017-047A,42915,42164.558,1436.088,35850.952,35721.894,0
GENERATED VIA SPACETRACK.ORG API,18 SPCS,42915,TDRS 13,PAYLOAD,U,17047A,2024-03-29 08:14:38,567616,1.00272406,0.0015304,3.7085,342.959,105.6716,210.7457,0,999,2422,0,-0.00000091,0,4250244,0 TDRS 13,1 42915U 17047A   24089.34350194 -.00000091  00000-0  00000-0 0  9993,2 42915   3.7085 342.9590 0015304 105.6716 210.7457  1.00272406 24225,2017-047A,42915,42164.558,1436.088,35850.952,35721.894,0
GENERATED VIA SPACETRACK.ORG API,18 SPCS,29055,ASTRA 1KR,PAYLOAD,U,06012A,2024-03-29 07:00:42,934176,1.00274836,0.0001873,0.0143,269.7304,48.6022,353.2223,0,999,6562,0,0.0000013,0,4250055,0 ASTRA 1KR,1 29055U 06012A   24089.29216359  .00000130  00000-0  00000+0 0  9993,2 29055   0.0143 269.7304 0001873  48.6022 353.2223  1.00274836 65623,2006-012A,29055,42163.877,1436.053,35793.639,35777.844,0
GENERATED VIA SPACETRACK.ORG API,18 SPCS,25967,UFO 10 (USA 146),PAYLOAD,U,99063A,2024-03-29 05:29:27,628800,1.0027223,0.0002597,9.4317,30.9818,294.8048,280.895,0,999,8922,0,-0.00000176,0,4250244,0 UFO 10 (USA 146),1 25967U 99063A   24089.22879200 -.00000176  00000-0  00000-0 0  9994,2 25967   9.4317  30.9818 0002597 294.8048 280.8950  1.00272230 89222,1999-063A,25967,42164.607,1436.091,35797.422,35775.522,0
GENERATED VIA SPACETRACK.ORG API,18 SPCS,43162,SBIRS GEO 3 (USA 282),PAYLOAD,U,18009A,2024-03-29 05:06:42,511392,1.00273052,0.0001951,2.4586,332.7214,41.2129,90.4349,0,999,2272,0,0.00000137,0,4250244,0 SBIRS GEO 3 (USA 282),1 43162U 18009A   24089.21299203  .00000137  00000-0  00000-0 0  9996,2 43162   2.4586 332.7214 0001951  41.2129  90.4349  1.00273052 22722,2018-009A,43162,42164.377,1436.079,35794.468,35778.016,0
GENERATED VIA SPACETRACK.ORG API,18 SPCS,33436,ASTRA 1M,PAYLOAD,U,08057A,2024-03-29 03:37:42,540384,1.0027187,0.0002265,0.0312,90.0696,323.4615,207.147,0,999,5635,0,0.0000013,0,4249930,0 ASTRA 1M,1 33436U 08057A   24089.15118681  .00000130  00000-0  00000+0 0  9996,2 33436   0.0312  90.0696 0002265 323.4615 207.1470  1.00271870 56352,2008-057A,33436,42164.708,1436.096,35796.123,35777.023,0
GENERATED VIA SPACETRACK.ORG API,18 SPCS,33436,ASTRA 1M,PAYLOAD,U,08057A,2024-03-29 03:37:42,540384,1.0027187,0.0002265,0.0312,90.0696,323.4615,207.147,0,999,3761,0,0.0000013,0,4250244,0 ASTRA 1M,1 33436U 08057A   24089.15118681  .00000130  00000-0  00000-0 0  9997,2 33436   0.0312  90.0696 0002265 323.4615 207.1470  1.00271870 37610,2008-057A,33436,42164.708,1436.096,35796.123,35777.023,0
GENERATED VIA SPACETRACK.ORG API,18 SPCS,41937,SBIRS GEO 4 (USA 273),PAYLOAD,U,17004A,2024-03-29 03:35:42,730368,1.00271865,0.0002393,1.4442,351.8585,17.0417,135.2564,0,999,2648,0,-0.00000134,0,4250244,0 SBIRS GEO 4 (USA 273),1 41937U 17004A   24089.14980012 -.00000134  00000-0  00000-0 0  9993,2 41937   1.4442 351.8585 0002393  17.0417 135.2564  1.00271865 26489,2017-004A,41937,42164.710,1436.096,35796.665,35776.485,0
GENERATED VIA SPACETRACK.ORG API,18 SPCS,44066,S5 DEB,DEBRIS,U,19009E,2024-03-29 02:24:06,353856,0.98984892,0.0003554,4.5021,80.4607,205.1948,155.0089,0,999,1834,0,0.0000005,0,4250244,0 S5 DEB,1 44066U 19009E   24089.10007354  .00000050  00000-0  00000-0 0  9997,2 44066   4.5021  80.4607 0003554 205.1948 155.0089  0.98984892 18346,2019-009E,44066,42529.398,1454.767,36166.378,36136.148,0
GENERATED VIA SPACETRACK.ORG API,18 SPCS,38697,TITAN 3C TRANSTAGE DEB *,DEBRIS,U,68081X,2024-03-29 02:12:29,587968,1.01478233,0.0551411,3.7922,34.7047,13.7231,347.7199,0,999,6663,0,0.00000072,0,4250176,0 TITAN 3C TRANSTAGE DEB *,1 38697U 68081X   24089.09200912  .00000072  00000-0  00000+0 0  9990,2 38697   3.7922  34.7047 0551411  13.7231 347.7199  1.01478233 66637,1968-081X,38697,41829.876,1419.024,37758.286,33145.196,0
GENERATED VIA SPACETRACK.ORG API,18 SPCS,38697,TITAN 3C TRANSTAGE DEB *,DEBRIS,U,68081X,2024-03-29 02:12:29,587968,1.01478233,0.0551411,3.7922,34.7047,13.7231,347.7199,0,999,6664,0,0.00000072,0,4250244,0 TITAN 3C TRANSTAGE DEB *,1 38697U 68081X   24089.09200912  .00000072  00000-0  00000-0 0  9991,2 38697   3.7922  34.7047 0551411  13.7231 347.7199  1.01478233 66648,1968-081X,38697,41829.876,1419.024,37758.286,33145.196,0
GENERATED VIA SPACETRACK.ORG API,18 SPCS,22787,UFO 2 (USA 95),PAYLOAD,U,93056A,2024-03-28 23:15:33,103296,1.00272951,0.0005058,11.6345,7.7793,18.2174,178.4086,0,999,11042,0,0.00000136,0,4249475,0 UFO 2 (USA 95),1 22787U 93056A   24088.96913314  .00000136  00000-0  00000-0 0  9997,2 22787  11.6345   7.7793 0005058  18.2174 178.4086  1.00272951110421,1993-056A,22787,42164.405,1436.080,35807.597,35764.943,0
GENERATED VIA SPACETRACK.ORG API,18 SPCS,42749,ECHOSTAR 21,PAYLOAD,U,17032A,2024-03-28 22:15:42,494688,1.00270822,0.0002411,2.6786,318.1675,48.6669,164.1628,0,999,2498,0,0.00000073,0,4249475,0 ECHOSTAR 21,1 42749U 17032A   24088.92757517  .00000073  00000-0  00000-0 0  9994,2 42749   2.6786 318.1675 0002411  48.6669 164.1628  1.00270822 24988,2017-032A,42749,42165.002,1436.111,35797.033,35776.701,0
GENERATED VIA SPACETRACK.ORG API,18 SPCS,44457,COSMOS 2539,PAYLOAD,U,19048A,2024-03-28 22:15:42,494688,1.00272697,0.0000053,0.0144,139.1572,228.4793,165.0955,0,999,1710,0,0.00000091,0,4249475,0 COSMOS 2539,1 44457U 19048A   24088.92757517  .00000091  00000-0  00000-0 0  9991,2 44457   0.0144 139.1572 0000053 228.4793 165.0955  1.00272697 17100,2019-048A,44457,42164.476,1436.084,35786.565,35786.118,0
GENERATED VIA SPACETRACK.ORG API,18 SPCS,38704,TITAN 3C TRANSTAGE DEB,DEBRIS,U,68081AE,2024-03-28 22:10:44,738688,1.02199184,0.0210152,2.2428,62.3887,214.712,144.2585,0,999,6772,0,-0.0000026,0,4251655,0 TITAN 3C TRANSTAGE DEB,1 38704U 68081AE  24088.92412892 -.00000260  00000-0  00000-0 0  9993,2 38704   2.2428  62.3887 0210152 214.7120 144.2585  1.02199184 67720,1968-081AE,38704,41632.922,1409.013,36129.711,34379.862,0
GENERATED VIA SPACETRACK.ORG API,18 SPCS,38704,TITAN 3C TRANSTAGE DEB,DEBRIS,U,68081AE,2024-03-28 22:10:42,601152,1.02199131,0.0210158,2.2428,62.378,214.7224,144.2479,0,999,6774,0,-0.00000261,0,4249898,0 TITAN 3C TRANSTAGE DEB,1 38704U 68081AE  24088.92410418 -.00000261  00000-0  00000+0 0  9995,2 38704   2.2428  62.3780 0210158 214.7224 144.2479  1.02199131 67749,1968-081AE,38704,41632.936,1409.014,36129.750,34379.852,0
GENERATED VIA SPACETRACK.ORG API,18 SPCS,38704,TITAN 3C TRANSTAGE DEB,DEBRIS,U,68081AE,2024-03-28 22:10:42,601152,1.02199131,0.0210158,2.2428,62.378,214.7224,144.2479,0,999,6772,0,-0.0000026,0,4250244,0 TITAN 3C TRANSTAGE DEB,1 38704U 68081AE  24088.92410418 -.00000260  00000-0  00000-0 0  9995,2 38704   2.2428  62.3780 0210158 214.7224 144.2479  1.02199131 67727,1968-081AE,38704,41632.936,1409.014,36129.750,34379.852,0
GENERATED VIA SPACETRACK.ORG API,18 SPCS,44479,AMOS 17,PAYLOAD,U,19050A,2024-03-28 22:00:22,463424,1.00274855,0.0001675,0.0199,162.9649,238.7874,132.1542,0,999,1706,0,0.0000012,0,4249475,0 AMOS 17,1 44479U 19050A   24088.91692666  .00000120  00000-0  00000-0 0  9993,2 44479   0.0199 162.9649 0001675 238.7874 132.1542  1.00274855 17068,2019-050A,44479,42163.871,1436.053,35792.799,35778.674,0
GENERATED VIA SPACETRACK.ORG API,18 SPCS,42915,TDRS 13,PAYLOAD,U,17047A,2024-03-28 21:56:07,61568,1.00272476,0.0015267,3.7088,342.9509,105.6748,55.6949,0,999,2422,0,-0.00000092,0,4249475,0 TDRS 13,1 42915U 17047A   24088.91397062 -.00000092  00000-0  00000-0 0  9991,2 42915   3.7088 342.9509 0015267 105.6748  55.6949  1.00272476 24220,2017-047A,42915,42164.538,1436.087,35850.776,35722.031,0
